[{"OBJECT_NAME":"OBJECT H","OBJECT_ID":"2025-055H","EPOCH":"2026-03-09T23:29:50.051328","MEAN_MOTION":15.30330066,"ECCENTRICITY":0.00075967,"INCLINATION":97.636,"RA_OF_ASC_NODE":211.9572,"ARG_OF_PERICENTER":140.4354,"MEAN_ANOMALY":219.7441,"EPHEMERIS_TYPE":0,"CLASSIFICATION_TYPE":"U","NORAD_CAT_ID":63298,"ELEMENT_SET_NO":999,"REV_AT_EPOCH":5423,"BSTAR":0.0015582864,"MEAN_MOTION_DOT":0.00045901,"MEAN_MOTION_DDOT":0},{"OBJECT_NAME":"STARLINK-34607","OBJECT_ID":"2025-144U","EPOCH":"2026-03-09T12:33:13.745664","MEAN_MOTION":15.30171229,"ECCENTRICITY":0.00014418,"INCLINATION":53.1586,"RA_OF_ASC_NODE":182.0056,"ARG_OF_PERICENTER":112.0264,"MEAN_ANOMALY":248.089,"EPHEMERIS_TYPE":0,"CLASSIFICATION_TYPE":"U","NORAD_CAT_ID":64742,"ELEMENT_SET_NO":999,"REV_AT_EPOCH":3966,"BSTAR":0.00026793801,"MEAN_MOTION_DOT":7.577e-5,"MEAN_MOTION_DDOT":0}]
